BEIDOU-2 IGSO-4         
1 37763U 11038A   26156.01309722  .00000056  00000+0  00000+0 0  9992
2 37763  54.5979 165.7814 0159001 231.3624 313.8818  1.00287701 54520
ASTRA 1N                
1 37775U 11041A   26158.20682331  .00000134  00000+0  00000+0 0  9999
2 37775   0.0781  33.4682 0006314  57.7426 258.0716  1.00271817 44428
BSAT-3C (JCSAT-110R)    
1 37776U 11041B   26158.15392258 -.00000336  00000+0  00000+0 0  9995
2 37776   0.0208 317.0849 0000415 195.3952 268.4552  1.00272573 50361
PAKSAT-1R               
1 37779U 11042A   26158.21055000  .00000168  00000+0  00000+0 0  9999
2 37779   0.6621  84.7031 0003346 344.8155 299.8878  1.00274403 54370
SES-2                   
1 37809U 11049A   26158.22961490 -.00000182  00000+0  00000+0 0  9997
2 37809   0.0419 119.1552 0002945 314.9452 177.2038  1.00272062 53865
ARABSAT-5C              
1 37810U 11049B   26158.20699664  .00000138  00000+0  00000+0 0  9998
2 37810   0.0590  27.0843 0003278  66.6123 256.4329  1.00273403 53934
EUTELSAT 7 WEST A       
1 37816U 11051A   26158.13023351 -.00000046  00000+0  00000+0 0  9992
2 37816   0.0604 350.3878 0004284  98.7848 205.9365  1.00271351 53775
QUETZSAT 1              
1 37826U 11054A   26158.27083036 -.00000227  00000+0  00000+0 0  9998
2 37826   0.0442  68.8830 0002856   8.7302 198.5736  1.00272445 49773
INTELSAT 18 (IS-18)     
1 37834U 11056A   26158.23862937  .00000067  00000+0  00000+0 0  9991
2 37834   0.0185 316.5654 0002164 133.0995  71.8904  1.00272104 53716
EUTELSAT 16A            
1 37836U 11057A   26158.20612998  .00000118  00000+0  00000+0 0  9998
2 37836   0.0421 350.2870 0005842  88.6210 266.8965  1.00270374  7233
VIASAT-1                
1 37843U 11059A   26158.25153152 -.00000009  00000+0  00000+0 0  9995
2 37843   0.0166 309.1717 0002324 133.9866 147.9565  1.00268124 47221
ASIASAT 7               
1 37933U 11069A   26158.04211372  .00000000  00000+0  00000+0 0  9992
2 37933   0.0158 341.9847 0001452  89.2921 304.8573  1.00267134 44754
BEIDOU-2 IGSO-5         
1 37948U 11073A   26157.80025230 -.00000158  00000+0  00000+0 0  9997
2 37948  47.6984 271.6762 0113548 221.6933 141.6840  1.00275467 53037
LUCH-5A                 
1 37951U 11074B   26157.59434360 -.00000037  00000+0  00000+0 0  9992
2 37951   8.7265  73.9638 0002402  12.4500 189.5697  1.00269862 52940
NIGCOMSAT 1R            
1 38014U 11077A   26158.21141667  .00000159  00000+0  00000+0 0  9995
2 38014   0.0119 275.3126 0002622  79.6112  19.2907  1.00271447 52857
WGS F4 (USA 233)        
1 38070U 12003A   26158.11969247 -.00000201  00000+0  00000+0 0  9997
2 38070   0.0171 327.0136 0000227 313.0208 107.0196  1.00271422 44044
SES-4                   
1 38087U 12007A   26158.19867660 -.00000154  00000+0  00000+0 0  9990
2 38087   0.0255  30.1953 0002485  59.2792 215.6551  1.00270697 52121
MUOS-1                  
1 38093U 12009A   26158.19003021 -.00000114  00000+0  00000+0 0  9998
2 38093   5.4566  47.1647 0058885   1.0407 175.8388  1.00270732 52342
INTELSAT 22 (IS-22)     
1 38098U 12011A   26158.13447851 -.00000045  00000+0  00000+0 0  9996
2 38098   0.0188  57.7505 0001608   7.8725 310.4276  1.00273293  7085
APSTAR-7                
1 38107U 12013A   26158.14687359 -.00000087  00000+0  00000+0 0  9995
2 38107   0.0329  77.6105 0003032   7.7586 299.5575  1.00271380 51709
YAHSAT 1B               
1 38245U 12016A   26157.89995056  .00000140  00000+0  00000+0 0  9997
2 38245   0.0875  90.9748 0002727   7.8884 168.0391  1.00269584 45501
AEHF-2 (USA 235)        
1 38254U 12019A   26158.05709411 -.00000122  00000+0  00000+0 0  9998
2 38254   6.6284  57.5637 0002315   8.6181 193.3244  1.00270497  6886
JCSAT-13                
1 38331U 12023A   26158.01363765 -.00000342  00000+0  00000+0 0  9997
2 38331   0.0386  81.1457 0002878  10.8839 292.3147  1.00272024 51436
VINASAT-2               
1 38332U 12023B   26157.94392359 -.00000315  00000+0  00000+0 0  9990
2 38332   0.0162   8.1590 0002440  79.3753 279.4879  1.00272716 46559
NIMIQ 6                 
1 38342U 12026A   26158.22961490 -.00000160  00000+0  00000+0 0  9992
2 38342   0.0089 321.0412 0002820 113.6664 172.4949  1.00271990 50315
ZHONGXING-2A            
1 38352U 12028A   26158.11275071 -.00000278  00000+0  00000+0 0  9996
2 38352   1.4276  84.0117 0003727  32.8228 277.5156  1.00271399 51199
INTELSAT 19 (IS-19)     
1 38356U 12030A   26158.23585603 -.00000042  00000+0  00000+0 0  9990
2 38356   0.0087  27.3737 0003109  56.4946  62.6861  1.00271483 50356
ECHOSTAR 17             
1 38551U 12035A   26158.03918906  .00000000  00000+0  00000+0 0  9999
2 38551   0.0160 347.6185 0001728  92.8336  82.0081  1.00270784 50962
METEOSAT-10 (MSG-3)     
1 38552U 12035B   26158.06040619  .00000009  00000+0  00000+0 0  9999
2 38552   4.6469  61.0634 0001691 336.1678 240.1814  1.00275746 50754
SES-5                   
1 38652U 12036A   26158.20396330  .00000048  00000+0  00000+0 0  9994
2 38652   0.0512 308.1240 0002179 128.2731 257.6257  1.00274070 44356
INTELSAT 20 (IS-20)     
1 38740U 12043A   26158.13447851 -.00000010  00000+0  00000+0 0  9997
2 38740   0.0013  29.9800 0001577 146.4747 195.9937  1.00271971 50645
