OBJECT_NAME,OBJECT_ID,EPOCH,MEAN_MOTION,ECCENTRICITY,INCLINATION,RA_OF_ASC_NODE,ARG_OF_PERICENTER,MEAN_ANOMALY,EPHEMERIS_TYPE,CLASSIFICATION_TYPE,NORAD_CAT_ID,ELEMENT_SET_NO,REV_AT_EPOCH,BSTAR,MEAN_MOTION_DOT,MEAN_MOTION_DDOT
BEIDOU-2 IGSO-4,2011-038A,2026-06-05T00:18:51.599808,1.00287701,.01590014,54.5979,165.7814,231.3624,313.8818,0,U,37763,999,5452,0,.56E-6,0
ASTRA 1N,2011-041A,2026-06-07T04:57:49.533984,1.00271817,.00063145,0.0781,33.4682,57.7426,258.0716,0,U,37775,999,4442,0,.134E-5,0
BSAT-3C (JCSAT-110R),2011-041B,2026-06-07T03:41:38.911776,1.00272573,.00004155,0.0208,317.0849,195.3952,268.4552,0,U,37776,999,5036,0,-.336E-5,0
PAKSAT-1R,2011-042A,2026-06-07T05:03:11.520000,1.00274403,.0003346,0.6621,84.7031,344.8155,299.8878,0,U,37779,999,5437,0,.168E-5,0
SES-2,2011-049A,2026-06-07T05:30:38.727360,1.00272062,.00029457,0.0419,119.1552,314.9452,177.2038,0,U,37809,999,5386,0,-.182E-5,0
ARABSAT-5C,2011-049B,2026-06-07T04:58:04.509696,1.00273403,.00032783,0.0590,27.0843,66.6123,256.4329,0,U,37810,999,5393,0,.138E-5,0
EUTELSAT 7 WEST A,2011-051A,2026-06-07T03:07:32.175264,1.00271351,.00042838,0.0604,350.3878,98.7848,205.9365,0,U,37816,999,5377,0,-.46E-6,0
QUETZSAT 1,2011-054A,2026-06-07T06:29:59.743104,1.00272445,.00028563,0.0442,68.8830,8.7302,198.5736,0,U,37826,999,4977,0,-.227E-5,0
INTELSAT 18 (IS-18),2011-056A,2026-06-07T05:43:37.577568,1.00272104,.00021649,0.0185,316.5654,133.0995,71.8904,0,U,37834,999,5371,0,.67E-6,0
EUTELSAT 16A,2011-057A,2026-06-07T04:56:49.630272,1.00270374,.00058425,0.0421,350.2870,88.6210,266.8965,0,U,37836,999,723,0,.118E-5,0
VIASAT-1,2011-059A,2026-06-07T06:02:12.323328,1.00268124,.00023245,0.0166,309.1717,133.9866,147.9565,0,U,37843,999,4722,0,-.9E-7,0
ASIASAT 7,2011-069A,2026-06-07T01:00:38.625408,1.00267134,.00014529,0.0158,341.9847,89.2921,304.8573,0,U,37933,999,4475,0,0,0
BEIDOU-2 IGSO-5,2011-073A,2026-06-06T19:12:21.798720,1.00275467,.01135482,47.6984,271.6762,221.6933,141.6840,0,U,37948,999,5303,0,-.158E-5,0
LUCH-5A,2011-074B,2026-06-06T14:15:51.287040,1.00269862,.00024028,8.7265,73.9638,12.4500,189.5697,0,U,37951,999,5294,0,-.37E-6,0
NIGCOMSAT 1R,2011-077A,2026-06-07T05:04:26.400288,1.00271447,.00026228,0.0119,275.3126,79.6112,19.2907,0,U,38014,999,5285,0,.159E-5,0
WGS F4 (USA 233),2012-003A,2026-06-07T02:52:21.429408,1.00271422,.00002271,0.0171,327.0136,313.0208,107.0196,0,U,38070,999,4404,0,-.201E-5,0
SES-4,2012-007A,2026-06-07T04:46:05.658240,1.00270697,.00024859,0.0255,30.1953,59.2792,215.6551,0,U,38087,999,5212,0,-.154E-5,0
MUOS-1,2012-009A,2026-06-07T04:33:38.610144,1.00270732,.00588851,5.4566,47.1647,1.0407,175.8388,0,U,38093,999,5234,0,-.114E-5,0
INTELSAT 22 (IS-22),2012-011A,2026-06-07T03:13:38.943264,1.00273293,.00016082,0.0188,57.7505,7.8725,310.4276,0,U,38098,999,708,0,-.45E-6,0
APSTAR-7,2012-013A,2026-06-07T03:31:29.878176,1.00271380,.00030318,0.0329,77.6105,7.7586,299.5575,0,U,38107,999,5170,0,-.87E-6,0
YAHSAT 1B,2012-016A,2026-06-06T21:35:55.728384,1.00269584,.00027275,0.0875,90.9748,7.8884,168.0391,0,U,38245,999,4550,0,.14E-5,0
AEHF-2 (USA 235),2012-019A,2026-06-07T01:22:12.931104,1.00270497,.00023153,6.6284,57.5637,8.6181,193.3244,0,U,38254,999,688,0,-.122E-5,0
JCSAT-13,2012-023A,2026-06-07T00:19:38.293824,1.00272024,.00028777,0.0386,81.1457,10.8839,292.3147,0,U,38331,999,5143,0,-.342E-5,0
VINASAT-2,2012-023B,2026-06-06T22:39:14.998176,1.00272716,.00024404,0.0162,8.1590,79.3753,279.4879,0,U,38332,999,4655,0,-.315E-5,0
NIMIQ 6,2012-026A,2026-06-07T05:30:38.727360,1.00271990,.000282,0.0089,321.0412,113.6664,172.4949,0,U,38342,999,5031,0,-.16E-5,0
ZHONGXING-2A,2012-028A,2026-06-07T02:42:21.661344,1.00271399,.00037269,1.4276,84.0117,32.8228,277.5156,0,U,38352,999,5119,0,-.278E-5,0
INTELSAT 19 (IS-19),2012-030A,2026-06-07T05:39:37.960992,1.00271483,.00031098,0.0087,27.3737,56.4946,62.6861,0,U,38356,999,5035,0,-.42E-6,0
ECHOSTAR 17,2012-035A,2026-06-07T00:56:25.935648,1.00270784,.00017276,0.0160,347.6185,92.8336,82.0081,0,U,38551,999,5096,0,0,0
METEOSAT-10 (MSG-3),2012-035B,2026-06-07T01:26:59.095680,1.00275746,.00016907,4.6469,61.0634,336.1678,240.1814,0,U,38552,999,5075,0,.9E-7,0
SES-5,2012-036A,2026-06-07T04:53:42.429120,1.00274070,.00021794,0.0512,308.1240,128.2731,257.6257,0,U,38652,999,4435,0,.48E-6,0
INTELSAT 20 (IS-20),2012-043A,2026-06-07T03:13:38.943264,1.00271971,.00015771,0.0013,29.9800,146.4747,195.9937,0,U,38740,999,5064,0,-.1E-6,0
